{
    "links": {
        "self": "http://www.neowsapp.com/rest/v1/neo/3781964?api_key=iIulBulltgU6a56xZRHN4H3l9WmuAYTsLGpBGhQ2"
    },
    "id": "3781964",
    "neo_reference_id": "3781964",
    "name": "(2017 SG19)",
    "designation": "2017 SG19",
    "nasa_jpl_url": "http://ssd.jpl.nasa.gov/sbdb.cgi?sstr=3781964",
    "absolute_magnitude_h": 23.4,
    "estimated_diameter": {
        "kilometers": {
            "estimated_diameter_min": 0.0555334912,
            "estimated_diameter_max": 0.1241766613
        },
        "meters": {
            "estimated_diameter_min": 55.5334911581,
            "estimated_diameter_max": 124.1766612574
        },
        "miles": {
            "estimated_diameter_min": 0.0345069009,
            "estimated_diameter_max": 0.0771597762
        },
        "feet": {
            "estimated_diameter_min": 182.1964991311,
            "estimated_diameter_max": 407.4037573197
        }
    },
    "is_potentially_hazardous_asteroid": false,
    "close_approach_data": [
        {
            "close_approach_date": "2017-08-31",
            "close_approach_date_full": "2017-Aug-31 07:35",
            "epoch_date_close_approach": 1504164900000,
            "relative_velocity": {
                "kilometers_per_second": "13.4690258017",
                "kilometers_per_hour": "48488.4928860926",
                "miles_per_hour": "30128.8638158057"
            },
            "miss_distance": {
                "astronomical": "0.1158210588",
                "lunar": "45.0543918732",
                "kilometers": "17326583.697624756",
                "miles": "10766239.8725273928"
            },
            "orbiting_body": "Earth"
        }
    ],
    "orbital_data": {
        "orbit_id": "2",
        "orbit_determination_date": "2017-12-27 06:26:48",
        "first_observation_date": "2017-09-24",
        "last_observation_date": "2017-09-30",
        "data_arc_in_days": 6,
        "observations_used": 12,
        "orbit_uncertainty": "8",
        "minimum_orbit_intersection": ".115642",
        "jupiter_tisserand_invariant": "3.207",
        "epoch_osculation": "2458021.5",
        "eccentricity": ".5443293475610465",
        "semi_major_axis": "2.431906585568568",
        "inclination": "21.45671381515758",
        "ascending_node_longitude": "342.3782668329007",
        "orbital_period": "1385.220021483105",
        "perihelion_distance": "1.108148460516617",
        "perihelion_argument": "340.8105816276535",
        "aphelion_distance": "3.755664710620518",
        "perihelion_time": "2457982.988476694773",
        "mean_anomaly": "10.00862547094712",
        "mean_motion": ".2598865121907211",
        "equinox": "J2000",
        "orbit_class": {
            "orbit_class_type": "AMO",
            "orbit_class_description": "Near-Earth asteroid orbits similar to that of 1221 Amor",
            "orbit_class_range": "1.017 AU < q (perihelion) < 1.3 AU"
        }
    },
    "is_sentry_object": false
}